0 COSMOS 1275 DEB
1 39959U 81053NV  17225.02433031  .00000052  00000-0  38151-4 0  9994
2 39959  82.9619 125.6595 0039597 164.3594 256.0552 13.75021368702022
0 COSMOS 1275 DEB
1 39960U 81053NW  17225.98703185 +.00000174 +00000-0 +23369-3 0  9990
2 39960 083.1436 225.5604 0242244 352.3890 007.3596 13.43736927648234
0 COSMOS 1275 DEB
1 39961U 81053NX  17227.71251337  .00000380  00000-0  29990-3 0  9996
2 39961  82.7730 207.7572 0059995 144.0633 340.1848 13.88278379903001
0 COSMOS 1275 DEB
1 39962U 81053NY  17225.10209671  .00000132  00000-0  11479-3 0  9990
2 39962  82.8220 343.9482 0074454  90.5188  27.9449 13.77130501738439
0 COSMOS 1275 DEB
1 39963U 81053NZ  17227.20428421 +.00000241 +00000-0 +27649-3 0  9997
2 39963 083.0105 185.3436 0132831 319.7220 101.8293 13.62369478159054
0 COSMOS 1275 DEB
1 39964U 81053PA  17227.40264449  .00000822  00000-0  23369-3 0  9998
2 39964  83.0940 356.7847 0045300  40.4370  23.6860 14.43685005849223
0 COSMOS 1275 DEB
1 39965U 81053PB  17227.76326667 +.00000229 +00000-0 +20175-3 0  9992
2 39965 082.9695 143.1909 0046552 094.6084 295.4193 13.80660297160870
0 COSMOS 1275 DEB
1 39966U 81053PC  17227.23944604 +.00000418 +00000-0 +30055-3 0  9990
2 39966 082.7101 042.9605 0043235 308.5254 173.1733 13.94403310162365
0 COSMOS 1275 DEB
1 39967U 81053PD  17224.09573184 +.00000224 +00000-0 +16398-3 0  9992
2 39967 082.9290 341.0735 0034207 105.1922 021.0568 13.91340781161495
0 SL-14 DEB
1 39969U 87068CV  17223.02393187  .00001007  00000-0  49096-3 0  9992
2 39969  82.5105 128.0447 0013972 157.7639 202.4148 14.17247610738670
0 SL-14 DEB
1 39970U 87068CW  17223.71972118 +.00000652 +00000-0 +38062-3 0  9993
2 39970 082.5495 210.3283 0009662 075.4587 284.7657 14.07052231163577
0 SL-14 DEB
1 39971U 87068CX  17227.59164444 +.00000301 +00000-0 +25660-3 0  9990
2 39971 082.4642 334.9662 0063728 132.1672 289.6185 13.83302240162934
0 SL-14 DEB
1 39972U 87068CY  17227.88316122 +.00000130 +00000-0 +97075-4 0  9995
2 39972 082.4926 282.5873 0021075 172.9116 313.2756 13.87711645161918
0 SL-14 DEB
1 39973U 87068CZ  17226.40548189  .00000494  00000-0  17700-3 0  9992
2 39973  83.0361  13.5311 0028580 112.2058 248.2167 14.31959208194646
0 SL-14 DEB
1 39974U 87068DA  17227.75375153  .00000596  00000-0  36471-3 0  9990
2 39974  82.5409 219.3909 0012160 113.6472   4.2567 14.04383775722488
0 SL-14 DEB
1 39975U 87068DB  17227.85224206 +.00000184 +00000-0 +10917-3 0  9994
2 39975 082.5962 260.2016 0104422 069.3975 291.8357 13.99821419163536
0 SL-14 DEB
1 39977U 87068DD  17226.99916816 +.00002503 +00000-0 +69498-3 0  9990
2 39977 082.4559 325.5350 0021407 168.6526 315.2765 14.46092946168303
0 SL-14 DEB
1 39978U 87068DE  17213.79426241 +.00000318 +00000-0 +23977-3 0  9997
2 39978 082.4092 227.1248 0047868 223.6037 257.6849 13.90966241689886
0 SL-14 DEB
1 39979U 87068DF  17226.01214399 +.00000864 +00000-0 +38068-3 0  9999
2 39979 082.5319 104.3033 0038635 071.5204 289.0170 14.22034416165461
0 SL-14 DEB
1 39980U 87068DG  17222.77846294  .00009182  00000-0  71577-3 0  9999
2 39980  82.4941 244.4598 0010888  92.3171 267.9300 15.01033379193241
0 SL-14 DEB
1 39981U 87068DH  17225.97482789 +.00000234 +00000-0 +17496-3 0  9999
2 39981 082.5569 307.5321 0008615 027.8012 094.2008 13.90933931624004
0 SL-14 DEB
1 39982U 87068DJ  17225.52785017 +.00000065 +00000-0 +41740-4 0  9993
2 39982 082.5492 305.7952 0017229 024.1701 036.4547 13.88396682161539
0 SL-14 DEB
1 39983U 87068DK  17225.77677585  .00000643  00000-0  31899-3 0  9996
2 39983  82.1533 251.3094 0075712 326.6023  32.9388 14.14552680745188
0 SL-14 DEB
1 39984U 87068DL  17227.72758566 +.00000721 +00000-0 +36053-3 0  9997
2 39984 082.8405 014.4593 0014338 103.7687 256.5088 14.15451945164812
0 SL-14 DEB
1 39986U 87068DN  17226.59612418  .00000406  00000-0  34628-3 0  9994
2 39986  82.5030 337.1087 0040304  16.5578  40.8950 13.84650774475521
0 BREEZE-M DEB
1 39988U 08011DM  17228.38649972 -.00000025  00000-0  00000+0 0  9992
2 39988  49.0885   5.2585 5631191  47.5083 348.0353  2.86510505 63974
0 BREEZE-M DEB
1 39993U 08011DS  17226.75205277 -.00000174  00000-0 -48306-2 0  9993
2 39993  51.3722  68.2126 6228600 223.5718  65.7204  3.17697394 65893
0 BREEZE-M DEB
1 39995U 08011DU  17227.63370637 -.00000142 +00000-0 -56371-3 0  9993
2 39995 049.5874 032.6900 6484170 324.4930 008.8545 03.08405965060511
0 MSG 1 DEB (BAFFLE COVER)
1 39999U 02040F   17227.60204809 +.00000030 +00000-0 +00000-0 0  9996
2 39999 009.4414 035.6842 0088831 048.3939 265.8026 01.01968206009174
0 FENGYUN 2C DEB
1 40000U 04042D   17223.01715048 -.00000127  00000-0  00000+0 0  9995
2 40000   9.2277  41.1914 0067835   3.4584 356.7083  1.00340993 30998
0 COSMOS 2500 (GLONASS)
1 40001U 14032A   17227.70487019 +.00000008 +00000-0 +00000-0 0  9998
2 40001 065.2601 062.5966 0005184 184.8363 349.4958 02.13102839024672
0 FREGAT R/B
1 40002U 14032B   17226.30811860 +.00000004 +00000-0 +00000-0 0  9995
2 40002 065.2920 064.1862 0082028 109.5789 251.3745 02.09161653024194
0 KAZEOSAT 2
1 40010U 14033A   17228.55090013  .00000026  00000-0  98779-5 0  9992
2 40010  97.8883 129.4059 0018060  79.7060 280.6173 14.82051532170886
0 HODOYOSHI 4
1 40011U 14033B   17228.42641959  .00000090  00000-0  18440-4 0  9997
2 40011  97.8794 125.6432 0028250  75.3293 285.1042 14.80892032170671
0 UNISAT 6
1 40012U 14033C   17227.88802194  .00000158  00000-0  31157-4 0  9992
2 40012  97.8486 109.7219 0060052 101.7231 259.0724 14.73644725169736
0 DEIMOS 2
1 40013U 14033D   17228.55677295 -.00000269  00000-0 -25410-4 0  9990
2 40013  97.8788 131.9414 0002276  96.8333 263.3159 14.84845514171168
0 BUGSAT 1
1 40014U 14033E   17228.42158527  .00000682  00000-0  67677-4 0  9997
2 40014  97.9549 154.0707 0033086 124.2173 236.2209 14.94792136172200
0 HODOYOSHI 3
1 40015U 14033F   17228.21808597  .00000020  00000-0  98090-5 0  9994
2 40015  97.8670 120.0500 0038607  82.4554 278.1040 14.78262660170359
0 SAUDISAT 4
1 40016U 14033G   17228.20542670  .00000010  00000-0  89183-5 0  9993
2 40016  97.8539 113.9592 0049883  93.9261 266.7653 14.75125520170012
0 TABLETSAT AURORA
1 40017U 14033H   17228.53062514  .00000509  00000-0  54671-4 0  9990
2 40017  97.9417 149.6154 0024805 125.7192 234.6340 14.92818217171977
0 APRIZESAT 9
1 40018U 14033J   17228.47205446 -.00000013  00000-0  59160-5 0  9997
2 40018  97.8352 103.4532 0072838 117.0937 243.7725 14.69813561169340
0 APRIZESAT 10
1 40019U 14033K   17228.43655183 -.00000002  00000-0  79159-5 0  9999
2 40019  97.8281  97.6649 0085443 131.7275 229.1278 14.66884423169050
0 BRITE TORONTO
1 40020U 14033L   17228.49282199  .00000108  00000-0  26840-4 0  9994
2 40020  97.8275  96.5389 0088590 134.4678 226.3816 14.66407271168932
0 DUCHIFAT 1
1 40021U 14033M   17227.80164290 +.00000288 +00000-0 +35784-4 0  9996
2 40021 097.9148 141.0462 0014540 102.8885 257.3957 14.89938631171471
0 PACE
1 40022U 14033N   17227.73033191  .00000179  00000-0  25418-4 0  9996
2 40022  97.9099 138.7274 0014872 109.3395 250.9431 14.88233589171326
0 FLOCK 1C 10
1 40023U 14033P   17228.35146712  .00000595  00000-0  69586-4 0  9996
2 40023  97.9180 140.5919 0013646 104.8997 255.3704 14.88780106171459
0 NANOSAT C BR1
1 40024U 14033Q   17227.69644870 +.00000329 +00000-0 +40704-4 0  9997
2 40024 097.9105 139.7340 0013799 104.2903 255.9847 14.89257660170880
0 QB50P1
1 40025U 14033R   17227.70789498  .00000255  00000-0  33540-4 0  9994
2 40025  97.9084 138.6982 0013952 107.3347 252.9397 14.88454354171341
0 FLOCK 1C 7
1 40026U 14033S   17228.47294751  .00000704  00000-0  79734-4 0  9997
2 40026  97.9176 141.5147 0012495 102.2205 258.0366 14.89516229171522
0 FLOCK 1C 1
1 40027U 14033T   17228.45136956  .00000383  00000-0  46812-4 0  9992
2 40027  97.9201 140.9367 0013945 102.9775 257.2997 14.88838906171483
0 POPSAT HIP 1
1 40028U 14033U   17228.55142839  .00000263  00000-0  34418-4 0  9997
2 40028  97.9125 139.8316 0015267 102.8937 257.3936 14.88323677171453
0 FLOCK 1C 2
1 40029U 14033V   17228.34511086  .00000667  00000-0  77111-4 0  9994
2 40029  97.9167 140.6811 0015095  99.8343 260.4545 14.88858049171452
0 DTUSAT 2
1 40030U 14033W   17228.19889180  .00000225  00000-0  30554-4 0  9992
2 40030  97.9048 138.2396 0013493 100.8479 259.4257 14.88076589171376
0 FLOCK 1C 4
1 40031U 14033X   17228.43477432  .00000273  00000-0  35190-4 0  9997
2 40031  97.9199 140.7452 0015829  98.2639 262.0341 14.88703413171454
0 QB50P2
1 40032U 14033Y   17228.51271639  .00000243  00000-0  32515-4 0  9993
2 40032  97.9054 138.5582 0013416 100.4021 259.8709 14.88011534171419
0 FLOCK 1C 11
1 40033U 14033Z   17228.49956280 -.00000005  00000-0  54250-5 0  9991
2 40033  97.9207 142.3555 0013473  92.0830 268.1909 14.90198579171570
0 ANTELSAT
1 40034U 14033AA  17228.16910444  .00000169  00000-0  32805-4 0  9999
2 40034  97.8510 110.2175 0060480  99.6237 261.1811 14.73725132169768
0 FLOCK 1C 9
1 40035U 14033AB  17228.46604520  .00000669  00000-0  77162-4 0  9998
2 40035  97.9221 141.1924 0013390  92.5063 267.7677 14.88914814171477
0 FLOCK 1C 6
1 40036U 14033AC  17228.54994664  .00000621  00000-0  71942-4 0  9997
2 40036  97.9215 141.4980 0013136  92.8576 267.4133 14.89020579171501
0 PERSEUS M2
1 40037U 14033AD  17227.91170398 +.00000067 +00000-0 +13880-4 0  9999
2 40037 097.9073 136.3638 0015843 108.1132 252.1810 14.86241802170685
0 FLOCK 1C 5
1 40038U 14033AE  17228.42331981  .00000443  00000-0  52998-4 0  9995
2 40038  97.9195 141.1691 0015464  93.2058 267.0913 14.89003298171479
0 PERSEUS M1
1 40039U 14033AF  17227.79187705  .00000089  00000-0  16499-4 0  9990
2 40039  97.9079 135.7781 0015710 104.8991 255.3965 14.85866055171133
0 FLOCK 1C 8
1 40040U 14033AG  17228.46980204  .00000884  00000-0  95247-4 0  9993
2 40040  97.9252 143.5165 0014474  83.4036 276.8828 14.90956086171618
0 FLOCK 1C 3
1 40041U 14033AH  17228.46456256  .00000623  00000-0  72616-4 0  9995
2 40041  97.9225 140.9758 0014691  92.1947 268.0943 14.88706784171455
